[{"OBJECT_NAME":"ONEWEB-0514","OBJECT_ID":"2022-138V","EPOCH":"2025-12-20T09:30:57.469536","MEAN_MOTION":13.1972494,"ECCENTRICITY":0.00017515,"INCLINATION":87.9206,"RA_OF_ASC_NODE":340.5359,"ARG_OF_PERICENTER":89.4171,"MEAN_ANOMALY":270.7163,"EPHEMERIS_TYPE":0,"CLASSIFICATION_TYPE":"U","NORAD_CAT_ID":54132,"ELEMENT_SET_NO":999,"REV_AT_EPOCH":15324,"BSTAR":0.00025820054,"MEAN_MOTION_DOT":1.16e-6,"MEAN_MOTION_DDOT":0},{"OBJECT_NAME":"ONEWEB-0515","OBJECT_ID":"2022-138W","EPOCH":"2025-12-20T20:42:55.431648","MEAN_MOTION":13.20771387,"ECCENTRICITY":9.53e-5,"INCLINATION":87.9217,"RA_OF_ASC_NODE":309.9868,"ARG_OF_PERICENTER":80.0477,"MEAN_ANOMALY":280.0763,"EPHEMERIS_TYPE":0,"CLASSIFICATION_TYPE":"U","NORAD_CAT_ID":54133,"ELEMENT_SET_NO":999,"REV_AT_EPOCH":15576,"BSTAR":2.3567e-5,"MEAN_MOTION_DOT":2.3e-7,"MEAN_MOTION_DDOT":0},{"OBJECT_NAME":"ONEWEB-0516","OBJECT_ID":"2022-138X","EPOCH":"2025-12-20T21:38:47.825952","MEAN_MOTION":13.19726268,"ECCENTRICITY":0.0001808,"INCLINATION":87.9197,"RA_OF_ASC_NODE":340.4547,"ARG_OF_PERICENTER":81.0945,"MEAN_ANOMALY":279.0392,"EPHEMERIS_TYPE":0,"CLASSIFICATION_TYPE":"U","NORAD_CAT_ID":54134,"ELEMENT_SET_NO":999,"REV_AT_EPOCH":15331,"BSTAR":0.00021739,"MEAN_MOTION_DOT":1.0e-6,"MEAN_MOTION_DDOT":0},{"OBJECT_NAME":"ONEWEB-0517","OBJECT_ID":"2022-138Y","EPOCH":"2025-12-20T21:09:13.588128","MEAN_MOTION":13.19724673,"ECCENTRICITY":0.0002021,"INCLINATION":87.9217,"RA_OF_ASC_NODE":340.4396,"ARG_OF_PERICENTER":91.4034,"MEAN_ANOMALY":268.733,"EPHEMERIS_TYPE":0,"CLASSIFICATION_TYPE":"U","NORAD_CAT_ID":54135,"ELEMENT_SET_NO":999,"REV_AT_EPOCH":15331,"BSTAR":-0.0001727,"MEAN_MOTION_DOT":-5.6e-7,"MEAN_MOTION_DDOT":0},{"OBJECT_NAME":"ONEWEB-0518","OBJECT_ID":"2022-138Z","EPOCH":"2025-12-20T21:36:31.773600","MEAN_MOTION":13.19724606,"ECCENTRICITY":0.0001918,"INCLINATION":87.9194,"RA_OF_ASC_NODE":340.4567,"ARG_OF_PERICENTER":81.7243,"MEAN_ANOMALY":278.4107,"EPHEMERIS_TYPE":0,"CLASSIFICATION_TYPE":"U","NORAD_CAT_ID":54136,"ELEMENT_SET_NO":999,"REV_AT_EPOCH":15331,"BSTAR":-8.5706e-5,"MEAN_MOTION_DOT":-2.1e-7,"MEAN_MOTION_DDOT":0},{"OBJECT_NAME":"ONEWEB-0519","OBJECT_ID":"2022-138AA","EPOCH":"2025-12-20T16:45:23.599584","MEAN_MOTION":13.19727192,"ECCENTRICITY":0.00019875,"INCLINATION":87.921,"RA_OF_ASC_NODE":340.4669,"ARG_OF_PERICENTER":90.2109,"MEAN_ANOMALY":269.9251,"EPHEMERIS_TYPE":0,"CLASSIFICATION_TYPE":"U","NORAD_CAT_ID":54137,"ELEMENT_SET_NO":999,"REV_AT_EPOCH":15329,"BSTAR":0.00033653813,"MEAN_MOTION_DOT":1.48e-6,"MEAN_MOTION_DDOT":0},{"OBJECT_NAME":"ONEWEB-0520","OBJECT_ID":"2022-138AB","EPOCH":"2025-12-20T23:02:57.359040","MEAN_MOTION":13.19725751,"ECCENTRICITY":0.0001974,"INCLINATION":87.9215,"RA_OF_ASC_NODE":340.4195,"ARG_OF_PERICENTER":75.4729,"MEAN_ANOMALY":284.6623,"EPHEMERIS_TYPE":0,"CLASSIFICATION_TYPE":"U","NORAD_CAT_ID":54138,"ELEMENT_SET_NO":999,"REV_AT_EPOCH":15331,"BSTAR":-7.5823e-5,"MEAN_MOTION_DOT":-1.7e-7,"MEAN_MOTION_DDOT":0},{"OBJECT_NAME":"ONEWEB-0521","OBJECT_ID":"2022-138AC","EPOCH":"2025-12-20T22:01:32.871648","MEAN_MOTION":13.19725248,"ECCENTRICITY":0.0001935,"INCLINATION":87.9209,"RA_OF_ASC_NODE":340.4125,"ARG_OF_PERICENTER":93.1374,"MEAN_ANOMALY":266.9981,"EPHEMERIS_TYPE":0,"CLASSIFICATION_TYPE":"U","NORAD_CAT_ID":54139,"ELEMENT_SET_NO":999,"REV_AT_EPOCH":15325,"BSTAR":0.00012085,"MEAN_MOTION_DOT":6.1e-7,"MEAN_MOTION_DDOT":0},{"OBJECT_NAME":"ONEWEB-0522","OBJECT_ID":"2022-138AD","EPOCH":"2025-12-21T01:10:19.847712","MEAN_MOTION":13.19724119,"ECCENTRICITY":0.0001943,"INCLINATION":87.9212,"RA_OF_ASC_NODE":340.388,"ARG_OF_PERICENTER":82.4304,"MEAN_ANOMALY":277.7049,"EPHEMERIS_TYPE":0,"CLASSIFICATION_TYPE":"U","NORAD_CAT_ID":54140,"ELEMENT_SET_NO":999,"REV_AT_EPOCH":15331,"BSTAR":-0.00021076,"MEAN_MOTION_DOT":-7.1e-7,"MEAN_MOTION_DDOT":0},{"OBJECT_NAME":"ONEWEB-0523","OBJECT_ID":"2022-138AE","EPOCH":"2025-12-21T03:41:05.231328","MEAN_MOTION":13.20770731,"ECCENTRICITY":0.0001386,"INCLINATION":87.9215,"RA_OF_ASC_NODE":309.9459,"ARG_OF_PERICENTER":105.2672,"MEAN_ANOMALY":254.8615,"EPHEMERIS_TYPE":0,"CLASSIFICATION_TYPE":"U","NORAD_CAT_ID":54141,"ELEMENT_SET_NO":999,"REV_AT_EPOCH":15580,"BSTAR":8.203e-5,"MEAN_MOTION_DOT":4.6e-7,"MEAN_MOTION_DDOT":0},{"OBJECT_NAME":"ONEWEB-0524","OBJECT_ID":"2022-138AF","EPOCH":"2025-12-21T03:25:11.331264","MEAN_MOTION":13.20772058,"ECCENTRICITY":9.87e-5,"INCLINATION":87.9203,"RA_OF_ASC_NODE":309.95,"ARG_OF_PERICENTER":64.165,"MEAN_ANOMALY":295.9585,"EPHEMERIS_TYPE":0,"CLASSIFICATION_TYPE":"U","NORAD_CAT_ID":54142,"ELEMENT_SET_NO":999,"REV_AT_EPOCH":15580,"BSTAR":0.00022214,"MEAN_MOTION_DOT":1.03e-6,"MEAN_MOTION_DDOT":0},{"OBJECT_NAME":"ONEWEB-0525","OBJECT_ID":"2022-138AG","EPOCH":"2025-12-20T21:59:16.421856","MEAN_MOTION":13.19725673,"ECCENTRICITY":0.0001981,"INCLINATION":87.9201,"RA_OF_ASC_NODE":340.4335,"ARG_OF_PERICENTER":79.2903,"MEAN_ANOMALY":280.8453,"EPHEMERIS_TYPE":0,"CLASSIFICATION_TYPE":"U","NORAD_CAT_ID":54143,"ELEMENT_SET_NO":999,"REV_AT_EPOCH":15331,"BSTAR":0.00026756,"MEAN_MOTION_DOT":1.2e-6,"MEAN_MOTION_DDOT":0},{"OBJECT_NAME":"ONEWEB-0526","OBJECT_ID":"2022-138AH","EPOCH":"2025-12-21T00:36:12.597120","MEAN_MOTION":13.19724616,"ECCENTRICITY":0.000183,"INCLINATION":87.9211,"RA_OF_ASC_NODE":340.4005,"ARG_OF_PERICENTER":82.6437,"MEAN_ANOMALY":277.4904,"EPHEMERIS_TYPE":0,"CLASSIFICATION_TYPE":"U","NORAD_CAT_ID":54144,"ELEMENT_SET_NO":999,"REV_AT_EPOCH":15330,"BSTAR":-0.00017149,"MEAN_MOTION_DOT":-5.6e-7,"MEAN_MOTION_DDOT":0},{"OBJECT_NAME":"ONEWEB-0529","OBJECT_ID":"2022-138AJ","EPOCH":"2025-12-21T00:40:45.564960","MEAN_MOTION":13.1972519,"ECCENTRICITY":0.0001935,"INCLINATION":87.9202,"RA_OF_ASC_NODE":340.4267,"ARG_OF_PERICENTER":76.8521,"MEAN_ANOMALY":283.2827,"EPHEMERIS_TYPE":0,"CLASSIFICATION_TYPE":"U","NORAD_CAT_ID":54145,"ELEMENT_SET_NO":999,"REV_AT_EPOCH":15332,"BSTAR":-0.00022182,"MEAN_MOTION_DOT":-7.6e-7,"MEAN_MOTION_DDOT":0},{"OBJECT_NAME":"ONEWEB-0531","OBJECT_ID":"2022-138AK","EPOCH":"2025-12-21T03:04:44.493600","MEAN_MOTION":13.20771869,"ECCENTRICITY":0.0001048,"INCLINATION":87.9214,"RA_OF_ASC_NODE":309.9471,"ARG_OF_PERICENTER":101.817,"MEAN_ANOMALY":258.3081,"EPHEMERIS_TYPE":0,"CLASSIFICATION_TYPE":"U","NORAD_CAT_ID":54146,"ELEMENT_SET_NO":999,"REV_AT_EPOCH":15580,"BSTAR":0.0001723,"MEAN_MOTION_DOT":8.3e-7,"MEAN_MOTION_DDOT":0},{"OBJECT_NAME":"ONEWEB-0535","OBJECT_ID":"2022-138AL","EPOCH":"2025-12-21T05:06:52.361856","MEAN_MOTION":13.1972457,"ECCENTRICITY":0.0001743,"INCLINATION":87.9206,"RA_OF_ASC_NODE":340.3588,"ARG_OF_PERICENTER":97.7428,"MEAN_ANOMALY":262.3902,"EPHEMERIS_TYPE":0,"CLASSIFICATION_TYPE":"U","NORAD_CAT_ID":54147,"ELEMENT_SET_NO":999,"REV_AT_EPOCH":15336,"BSTAR":-8.6691e-6,"MEAN_MOTION_DOT":9.0e-8,"MEAN_MOTION_DDOT":0},{"OBJECT_NAME":"ONEWEB-0536","OBJECT_ID":"2022-138AM","EPOCH":"2025-12-20T21:19:16.806144","MEAN_MOTION":13.20770322,"ECCENTRICITY":8.52e-5,"INCLINATION":87.9206,"RA_OF_ASC_NODE":310.0374,"ARG_OF_PERICENTER":97.6834,"MEAN_ANOMALY":262.4396,"EPHEMERIS_TYPE":0,"CLASSIFICATION_TYPE":"U","NORAD_CAT_ID":54148,"ELEMENT_SET_NO":999,"REV_AT_EPOCH":15576,"BSTAR":9.7782e-5,"MEAN_MOTION_DOT":5.3e-7,"MEAN_MOTION_DDOT":0}]
