ONEWEB-0514             
1 54132U 22138V   25354.39649849  .00000116  00000+0  25820-3 0  9999
2 54132  87.9206 340.5359 0001751  89.4171 270.7163 13.19724940153243
ONEWEB-0515             
1 54133U 22138W   25354.86314157  .00000023  00000+0  23567-4 0  9997
2 54133  87.9217 309.9868 0000953  80.0477 280.0763 13.20771387155767
ONEWEB-0516             
1 54134U 22138X   25354.90194243  .00000100  00000+0  21739-3 0  9999
2 54134  87.9197 340.4547 0001808  81.0945 279.0392 13.19726268153311
ONEWEB-0517             
1 54135U 22138Y   25354.88140727 -.00000056  00000+0 -17270-3 0  9992
2 54135  87.9217 340.4396 0002021  91.4034 268.7330 13.19724673153314
ONEWEB-0518             
1 54136U 22138Z   25354.90036775 -.00000021  00000+0 -85706-4 0  9995
2 54136  87.9194 340.4567 0001918  81.7243 278.4107 13.19724606153313
ONEWEB-0519             
1 54137U 22138AA  25354.69818981  .00000148  00000+0  33654-3 0  9991
2 54137  87.9210 340.4669 0001987  90.2109 269.9251 13.19727192153293
ONEWEB-0520             
1 54138U 22138AB  25354.96038610 -.00000017  00000+0 -75823-4 0  9997
2 54138  87.9215 340.4195 0001974  75.4729 284.6623 13.19725751153311
ONEWEB-0521             
1 54139U 22138AC  25354.91774157  .00000061  00000+0  12085-3 0  9993
2 54139  87.9209 340.4125 0001935  93.1374 266.9981 13.19725248153252
ONEWEB-0522             
1 54140U 22138AD  25355.04884083 -.00000071  00000+0 -21076-3 0  9993
2 54140  87.9212 340.3880 0001943  82.4304 277.7049 13.19724119153316
ONEWEB-0523             
1 54141U 22138AE  25355.15353277  .00000046  00000+0  82030-4 0  9990
2 54141  87.9215 309.9459 0001386 105.2672 254.8615 13.20770731155800
ONEWEB-0524             
1 54142U 22138AF  25355.14249226  .00000103  00000+0  22214-3 0  9999
2 54142  87.9203 309.9500 0000987  64.1650 295.9585 13.20772058155806
ONEWEB-0525             
1 54143U 22138AG  25354.91616229  .00000120  00000+0  26756-3 0  9999
2 54143  87.9201 340.4335 0001981  79.2903 280.8453 13.19725673153314
ONEWEB-0526             
1 54144U 22138AH  25355.02514580 -.00000056  00000+0 -17149-3 0  9996
2 54144  87.9211 340.4005 0001830  82.6437 277.4904 13.19724616153301
ONEWEB-0529             
1 54145U 22138AJ  25355.02830515 -.00000076  00000+0 -22182-3 0  9991
2 54145  87.9202 340.4267 0001935  76.8521 283.2827 13.19725190153326
ONEWEB-0531             
1 54146U 22138AK  25355.12829275  .00000083  00000+0  17230-3 0  9998
2 54146  87.9214 309.9471 0001048 101.8170 258.3081 13.20771869155807
ONEWEB-0535             
1 54147U 22138AL  25355.21310604  .00000009  00000+0 -86691-5 0  9998
2 54147  87.9206 340.3588 0001743  97.7428 262.3902 13.19724570153369
ONEWEB-0536             
1 54148U 22138AM  25354.88838896  .00000053  00000+0  97782-4 0  9999
2 54148  87.9206 310.0374 0000852  97.6834 262.4396 13.20770322155769
